TOMORROW-R2             
1 56962U 23084AG  26068.88846178  .00107013  00000+0  81619-3 0  9996
2 56962  97.5895 222.1734 0005114 248.1295 111.9424 15.71879583153326
STARLINK-11487 [DTC]    
1 62278U 24237M   26068.98750379  .00129568  00000+0  99580-3 0  9997
2 62278  43.0003  55.3015 0001572 243.0309 117.0398 15.70882532 73091
