[{"OBJECT_NAME":"TOMORROW-R2","OBJECT_ID":"2023-084AG","EPOCH":"2026-03-09T21:19:23.098656","MEAN_MOTION":15.71879583,"ECCENTRICITY":0.00051142,"INCLINATION":97.5895,"RA_OF_ASC_NODE":222.1734,"ARG_OF_PERICENTER":248.1295,"MEAN_ANOMALY":111.9424,"EPHEMERIS_TYPE":0,"CLASSIFICATION_TYPE":"U","NORAD_CAT_ID":56962,"ELEMENT_SET_NO":999,"REV_AT_EPOCH":15332,"BSTAR":0.00081619373,"MEAN_MOTION_DOT":0.00107013,"MEAN_MOTION_DDOT":0},{"OBJECT_NAME":"STARLINK-11487 [DTC]","OBJECT_ID":"2024-237M","EPOCH":"2026-03-09T23:42:00.327456","MEAN_MOTION":15.70882532,"ECCENTRICITY":0.00015723,"INCLINATION":43.0003,"RA_OF_ASC_NODE":55.3015,"ARG_OF_PERICENTER":243.0309,"MEAN_ANOMALY":117.0398,"EPHEMERIS_TYPE":0,"CLASSIFICATION_TYPE":"U","NORAD_CAT_ID":62278,"ELEMENT_SET_NO":999,"REV_AT_EPOCH":7309,"BSTAR":0.00099580366,"MEAN_MOTION_DOT":0.00129568,"MEAN_MOTION_DDOT":0}]
